{
    "links": {
        "self": "http://www.neowsapp.com/rest/v1/neo/3532407?api_key=iIulBulltgU6a56xZRHN4H3l9WmuAYTsLGpBGhQ2"
    },
    "id": "3532407",
    "neo_reference_id": "3532407",
    "name": "(2010 MZ1)",
    "designation": "2010 MZ1",
    "nasa_jpl_url": "http://ssd.jpl.nasa.gov/sbdb.cgi?sstr=3532407",
    "absolute_magnitude_h": 25.6,
    "estimated_diameter": {
        "kilometers": {
            "estimated_diameter_min": 0.0201629919,
            "estimated_diameter_max": 0.0450858206
        },
        "meters": {
            "estimated_diameter_min": 20.1629919443,
            "estimated_diameter_max": 45.0858206172
        },
        "miles": {
            "estimated_diameter_min": 0.0125286985,
            "estimated_diameter_max": 0.0280150214
        },
        "feet": {
            "estimated_diameter_min": 66.1515504905,
            "estimated_diameter_max": 147.9193637137
        }
    },
    "is_potentially_hazardous_asteroid": false,
    "close_approach_data": [
        {
            "close_approach_date": "2010-06-25",
            "close_approach_date_full": "2010-Jun-25 23:25",
            "epoch_date_close_approach": 1277508300000,
            "relative_velocity": {
                "kilometers_per_second": "12.595723921",
                "kilometers_per_hour": "45344.6061156482",
                "miles_per_hour": "28175.3748389149"
            },
            "miss_distance": {
                "astronomical": "0.0199421466",
                "lunar": "7.7574950274",
                "kilometers": "2983302.654587742",
                "miles": "1853738.3105731596"
            },
            "orbiting_body": "Earth"
        }
    ],
    "orbital_data": {
        "orbit_id": "7",
        "orbit_determination_date": "2017-04-06 08:57:12",
        "first_observation_date": "2010-06-24",
        "last_observation_date": "2010-06-25",
        "data_arc_in_days": 1,
        "observations_used": 18,
        "orbit_uncertainty": "8",
        "minimum_orbit_intersection": ".0195616",
        "jupiter_tisserand_invariant": "4.434",
        "epoch_osculation": "2455371.5",
        "eccentricity": ".30566333924985",
        "semi_major_axis": "1.491953053837456",
        "inclination": "21.90182900519111",
        "ascending_node_longitude": "93.90497391319612",
        "orbital_period": "665.6273577730855",
        "perihelion_distance": "1.035917701397488",
        "perihelion_argument": "178.445452867328",
        "aphelion_distance": "1.947988406277424",
        "perihelion_time": "2455372.001562142646",
        "mean_anomaly": "359.7287335485178",
        "mean_motion": ".540843154650992",
        "equinox": "J2000",
        "orbit_class": {
            "orbit_class_type": "AMO",
            "orbit_class_description": "Near-Earth asteroid orbits similar to that of 1221 Amor",
            "orbit_class_range": "1.017 AU < q (perihelion) < 1.3 AU"
        }
    },
    "is_sentry_object": false
}